{"type": "FeatureCollection", "features": [ {"type": "Feature", "properties": {"norad_id": 40534, "name": "GPS BIIF-9  (PRN 26)", "group": "gps-ops", "lat": -51.61292668374237, "lon": 102.69571106871878, "alt_km": 20405.601258599952, "timestamp": "2025-12-13T10:41:26.024807+00:00", "meta": {"OBJECT_NAME": "GPS BIIF-9  (PRN 26)", "OBJECT_ID": "2015-013A", "EPOCH": "2025-12-11T14:12:34.875648", "MEAN_MOTION": 2.00562655, "ECCENTRICITY": 0.01070076, "INCLINATION": 53.1979, "RA_OF_ASC_NODE": 211.9377, "ARG_OF_PERICENTER": 38.4526, "MEAN_ANOMALY": 322.3807, "EPHEMERIS_TYPE": 0, "CLASSIFICATION_TYPE": "U", "NORAD_CAT_ID": 40534, "ELEMENT_SET_NO": 999, "REV_AT_EPOCH": 7806, "BSTAR": 0, "MEAN_MOTION_DOT": 2.2e-07, "MEAN_MOTION_DDOT": 0}, "tle": {"line1": "1 40534U 15013A   25345.59207032  .00000022  00000+0  00000+0 0  9995", "line2": "2 40534  53.1979 211.9377 0107007  38.4526 322.3807  2.00562655 78062"}}, "geometry": {"type": "Point", "coordinates": [102.69571106871878, -51.61292668374237]}}, {"type": "Feature", "properties": {"norad_id": 40730, "name": "GPS BIIF-10 (PRN 08)", "group": "gps-ops", "lat": 28.8108196578316, "lon": 71.31200715837109, "alt_km": 20308.408679580316, "timestamp": "2025-12-13T10:41:26.024818+00:00", "meta": {"OBJECT_NAME": "GPS BIIF-10 (PRN 08)", "OBJECT_ID": "2015-033A", "EPOCH": "2025-12-12T18:00:46.336320", "MEAN_MOTION": 2.00565613, "ECCENTRICITY": 0.01109707, "INCLINATION": 54.1306, "RA_OF_ASC_NODE": 274.7724, "ARG_OF_PERICENTER": 26.8075, "MEAN_ANOMALY": 333.7759, "EPHEMERIS_TYPE": 0, "CLASSIFICATION_TYPE": "U", "NORAD_CAT_ID": 40730, "ELEMENT_SET_NO": 999, "REV_AT_EPOCH": 7625, "BSTAR": 0, "MEAN_MOTION_DOT": -7.4e-07, "MEAN_MOTION_DDOT": 0}, "tle": {"line1": "1 40730U 15033A   25346.75053630 -.00000074  00000+0  00000+0 0  9995", "line2": "2 40730  54.1306 274.7724 0110970  26.8075 333.7759  2.00565613 76259"}}, "geometry": {"type": "Point", "coordinates": [71.31200715837109, 28.8108196578316]}}, {"type": "Feature", "properties": {"norad_id": 41019, "name": "GPS BIIF-11 (PRN 10)", "group": "gps-ops", "lat": 56.19052525938902, "lon": 140.63871686481056, "alt_km": 20374.520087401237, "timestamp": "2025-12-13T10:41:26.024829+00:00", "meta": {"OBJECT_NAME": "GPS BIIF-11 (PRN 10)", "OBJECT_ID": "2015-062A", "EPOCH": "2025-12-11T07:32:26.435904", "MEAN_MOTION": 2.00567124, "ECCENTRICITY": 0.01107874, "INCLINATION": 56.8311, "RA_OF_ASC_NODE": 38.0574, "ARG_OF_PERICENTER": 229.9047, "MEAN_ANOMALY": 129.1688, "EPHEMERIS_TYPE": 0, "CLASSIFICATION_TYPE": "U", "NORAD_CAT_ID": 41019, "ELEMENT_SET_NO": 999, "REV_AT_EPOCH": 7406, "BSTAR": 0, "MEAN_MOTION_DOT": -9.3e-07, "MEAN_MOTION_DDOT": 0}, "tle": {"line1": "1 41019U 15062A   25345.31419486 -.00000093  00000+0  00000+0 0  9995", "line2": "2 41019  56.8311  38.0574 0110787 229.9047 129.1688  2.00567124 74064"}}, "geometry": {"type": "Point", "coordinates": [140.63871686481056, 56.19052525938902]}}, {"type": "Feature", "properties": {"norad_id": 41328, "name": "GPS BIIF-12 (PRN 32)", "group": "gps-ops", "lat": 31.051394706988514, "lon": 121.34642598560252, "alt_km": 20400.290400793274, "timestamp": "2025-12-13T10:41:26.024840+00:00", "meta": {"OBJECT_NAME": "GPS BIIF-12 (PRN 32)", "OBJECT_ID": "2016-007A", "EPOCH": "2025-12-10T21:33:15.579936", "MEAN_MOTION": 2.00560768, "ECCENTRICITY": 0.0092092, "INCLINATION": 55.4051, "RA_OF_ASC_NODE": 96.9301, "ARG_OF_PERICENTER": 243.5329, "MEAN_ANOMALY": 115.5097, "EPHEMERIS_TYPE": 0, "CLASSIFICATION_TYPE": "U", "NORAD_CAT_ID": 41328, "ELEMENT_SET_NO": 999, "REV_AT_EPOCH": 7206, "BSTAR": 0, "MEAN_MOTION_DOT": 1e-08, "MEAN_MOTION_DDOT": 0}, "tle": {"line1": "1 41328U 16007A   25344.89809699  .00000001  00000+0  00000+0 0  9997", "line2": "2 41328  55.4051  96.9301 0092092 243.5329 115.5097  2.00560768 72065"}}, "geometry": {"type": "Point", "coordinates": [121.34642598560252, 31.051394706988514]}}, {"type": "Feature", "properties": {"norad_id": 43873, "name": "GPS BIII-1  (PRN 04)", "group": "gps-ops", "lat": -49.206021023565214, "lon": 46.939719591425764, "alt_km": 20202.901459460863, "timestamp": "2025-12-13T10:41:26.024852+00:00", "meta": {"OBJECT_NAME": "GPS BIII-1  (PRN 04)", "OBJECT_ID": "2018-109A", "EPOCH": "2025-12-12T07:06:10.304640", "MEAN_MOTION": 2.00553613, "ECCENTRICITY": 0.0037314, "INCLINATION": 55.5671, "RA_OF_ASC_NODE": 99.5642, "ARG_OF_PERICENTER": 194.9554, "MEAN_ANOMALY": 348.038, "EPHEMERIS_TYPE": 0, "CLASSIFICATION_TYPE": "U", "NORAD_CAT_ID": 43873, "ELEMENT_SET_NO": 999, "REV_AT_EPOCH": 5132, "BSTAR": 0, "MEAN_MOTION_DOT": -2e-08, "MEAN_MOTION_DDOT": 0}, "tle": {"line1": "1 43873U 18109A   25346.29595260 -.00000002  00000+0  00000+0 0  9993", "line2": "2 43873  55.5671  99.5642 0037314 194.9554 348.0380  2.00553613 51328"}}, "geometry": {"type": "Point", "coordinates": [46.939719591425764, -49.206021023565214]}}, {"type": "Feature", "properties": {"norad_id": 44506, "name": "GPS BIII-2  (PRN 18)", "group": "gps-ops", "lat": -8.150445680230904, "lon": 164.12420776961335, "alt_km": 20031.932154728274, "timestamp": "2025-12-13T10:41:26.024863+00:00", "meta": {"OBJECT_NAME": "GPS BIII-2  (PRN 18)", "OBJECT_ID": "2019-056A", "EPOCH": "2025-12-11T10:12:28.532736", "MEAN_MOTION": 2.00566237, "ECCENTRICITY": 0.00577517, "INCLINATION": 55.7218, "RA_OF_ASC_NODE": 338.6041, "ARG_OF_PERICENTER": 198.4885, "MEAN_ANOMALY": 332.8185, "EPHEMERIS_TYPE": 0, "CLASSIFICATION_TYPE": "U", "NORAD_CAT_ID": 44506, "ELEMENT_SET_NO": 999, "REV_AT_EPOCH": 4630, "BSTAR": 0, "MEAN_MOTION_DOT": -8.7e-07, "MEAN_MOTION_DDOT": 0}, "tle": {"line1": "1 44506U 19056A   25345.42533024 -.00000087  00000+0  00000+0 0  9996", "line2": "2 44506  55.7218 338.6041 0057751 198.4885 332.8185  2.00566237 46306"}}, "geometry": {"type": "Point", "coordinates": [164.12420776961335, -8.150445680230904]}}, {"type": "Feature", "properties": {"norad_id": 45854, "name": "GPS BIII-3  (PRN 23)", "group": "gps-ops", "lat": 37.357375289208626, "lon": -174.1098545856328, "alt_km": 20122.467025963742, "timestamp": "2025-12-13T10:41:26.024874+00:00", "meta": {"OBJECT_NAME": "GPS BIII-3  (PRN 23)", "OBJECT_ID": "2020-041A", "EPOCH": "2025-12-11T05:23:02.925024", "MEAN_MOTION": 2.00561914, "ECCENTRICITY": 0.006046, "INCLINATION": 56.5461, "RA_OF_ASC_NODE": 36.2442, "ARG_OF_PERICENTER": 203.3747, "MEAN_ANOMALY": 126.9066, "EPHEMERIS_TYPE": 0, "CLASSIFICATION_TYPE": "U", "NORAD_CAT_ID": 45854, "ELEMENT_SET_NO": 999, "REV_AT_EPOCH": 4026, "BSTAR": 0, "MEAN_MOTION_DOT": -9.4e-07, "MEAN_MOTION_DDOT": 0}, "tle": {"line1": "1 45854U 20041A   25345.22433941 -.00000094  00000+0  00000+0 0  9992", "line2": "2 45854  56.5461  36.2442 0060460 203.3747 126.9066  2.00561914 40268"}}, "geometry": {"type": "Point", "coordinates": [-174.1098545856328, 37.357375289208626]}}, {"type": "Feature", "properties": {"norad_id": 46826, "name": "GPS BIII-4  (PRN 14)", "group": "gps-ops", "lat": 51.663145202445925, "lon": -28.345886611967508, "alt_km": 20202.297032285955, "timestamp": "2025-12-13T10:41:26.024914+00:00", "meta": {"OBJECT_NAME": "GPS BIII-4  (PRN 14)", "OBJECT_ID": "2020-078A", "EPOCH": "2025-12-13T00:53:29.004000", "MEAN_MOTION": 2.00566814, "ECCENTRICITY": 0.00646719, "INCLINATION": 54.015, "RA_OF_ASC_NODE": 218.3288, "ARG_OF_PERICENTER": 203.3817, "MEAN_ANOMALY": 326.8, "EPHEMERIS_TYPE": 0, "CLASSIFICATION_TYPE": "U", "NORAD_CAT_ID": 46826, "ELEMENT_SET_NO": 999, "REV_AT_EPOCH": 3777, "BSTAR": 0, "MEAN_MOTION_DOT": 2.7e-07, "MEAN_MOTION_DDOT": 0}, "tle": {"line1": "1 46826U 20078A   25347.03714125  .00000027  00000+0  00000+0 0  9994", "line2": "2 46826  54.0150 218.3288 0064671 203.3817 326.8000  2.00566814 37778"}}, "geometry": {"type": "Point", "coordinates": [-28.345886611967508, 51.663145202445925]}}, {"type": "Feature", "properties": {"norad_id": 48859, "name": "GPS BIII-5  (PRN 11)", "group": "gps-ops", "lat": -50.29046377987292, "lon": -76.75520521200608, "alt_km": 20152.762978556402, "timestamp": "2025-12-13T10:41:26.024939+00:00", "meta": {"OBJECT_NAME": "GPS BIII-5  (PRN 11)", "OBJECT_ID": "2021-054A", "EPOCH": "2025-12-08T04:14:32.423424", "MEAN_MOTION": 2.00553627, "ECCENTRICITY": 0.0024678, "INCLINATION": 55.2581, "RA_OF_ASC_NODE": 340.1367, "ARG_OF_PERICENTER": 233.3994, "MEAN_ANOMALY": 212.8593, "EPHEMERIS_TYPE": 0, "CLASSIFICATION_TYPE": "U", "NORAD_CAT_ID": 48859, "ELEMENT_SET_NO": 999, "REV_AT_EPOCH": 3292, "BSTAR": 0, "MEAN_MOTION_DOT": -8.6e-07, "MEAN_MOTION_DDOT": 0}, "tle": {"line1": "1 48859U 21054A   25342.17676416 -.00000086  00000+0  00000+0 0  9993", "line2": "2 48859  55.2581 340.1367 0024678 233.3994 212.8593  2.00553627 32922"}}, "geometry": {"type": "Point", "coordinates": [-76.75520521200608, -50.29046377987292]}}, {"type": "Feature", "properties": {"norad_id": 55268, "name": "GPS BIII-6  (PRN 28)", "group": "gps-ops", "lat": -22.09483330546045, "lon": 139.34683278924476, "alt_km": 20176.95411609535, "timestamp": "2025-12-13T10:41:26.024960+00:00", "meta": {"OBJECT_NAME": "GPS BIII-6  (PRN 28)", "OBJECT_ID": "2023-009A", "EPOCH": "2025-12-12T05:45:10.561248", "MEAN_MOTION": 2.00555751, "ECCENTRICITY": 0.00036962, "INCLINATION": 55.1051, "RA_OF_ASC_NODE": 155.8647, "ARG_OF_PERICENTER": 357.1101, "MEAN_ANOMALY": 185.0409, "EPHEMERIS_TYPE": 0, "CLASSIFICATION_TYPE": "U", "NORAD_CAT_ID": 55268, "ELEMENT_SET_NO": 999, "REV_AT_EPOCH": 2149, "BSTAR": 0, "MEAN_MOTION_DOT": 9.5e-07, "MEAN_MOTION_DDOT": 0}, "tle": {"line1": "1 55268U 23009A   25346.23970557  .00000095  00000+0  00000+0 0  9990", "line2": "2 55268  55.1051 155.8647 0003696 357.1101 185.0409  2.00555751 21496"}}, "geometry": {"type": "Point", "coordinates": [139.34683278924476, -22.09483330546045]}}]}